[{"OBJECT_NAME":"STARLINK-30569","OBJECT_ID":"2023-158T","EPOCH":"2026-03-09T22:00:01.999584","MEAN_MOTION":15.15005129,"ECCENTRICITY":0.00022494,"INCLINATION":42.9997,"RA_OF_ASC_NODE":28.3107,"ARG_OF_PERICENTER":271.6745,"MEAN_ANOMALY":126.7361,"EPHEMERIS_TYPE":0,"CLASSIFICATION_TYPE":"U","NORAD_CAT_ID":58068,"ELEMENT_SET_NO":999,"REV_AT_EPOCH":558,"BSTAR":0.0041706163,"MEAN_MOTION_DOT":0.00079957,"MEAN_MOTION_DDOT":0},{"OBJECT_NAME":"THOR ABLESTAR DEB","OBJECT_ID":"1961-015HM","EPOCH":"2026-03-09T12:53:31.788672","MEAN_MOTION":15.12609006,"ECCENTRICITY":0.0020802,"INCLINATION":66.4912,"RA_OF_ASC_NODE":108.7707,"ARG_OF_PERICENTER":275.236,"MEAN_ANOMALY":209.827,"EPHEMERIS_TYPE":0,"CLASSIFICATION_TYPE":"U","NORAD_CAT_ID":660,"ELEMENT_SET_NO":999,"REV_AT_EPOCH":37032,"BSTAR":0.0020976473,"MEAN_MOTION_DOT":0.00036985,"MEAN_MOTION_DDOT":0}]
